[{"OBJECT_NAME":"TIANMU-1 09","OBJECT_ID":"2023-101C","EPOCH":"2026-03-09T22:17:34.703232","MEAN_MOTION":15.29080822,"ECCENTRICITY":0.00049013,"INCLINATION":97.267,"RA_OF_ASC_NODE":121.1263,"ARG_OF_PERICENTER":139.4293,"MEAN_ANOMALY":220.7314,"EPHEMERIS_TYPE":0,"CLASSIFICATION_TYPE":"U","NORAD_CAT_ID":57401,"ELEMENT_SET_NO":999,"REV_AT_EPOCH":14647,"BSTAR":0.00030540035,"MEAN_MOTION_DOT":8.553e-5,"MEAN_MOTION_DDOT":0},{"OBJECT_NAME":"STARLINK-34463","OBJECT_ID":"2025-137E","EPOCH":"2026-03-09T23:20:09.352608","MEAN_MOTION":15.30189777,"ECCENTRICITY":9.945e-5,"INCLINATION":53.158,"RA_OF_ASC_NODE":334.2407,"ARG_OF_PERICENTER":128.873,"MEAN_ANOMALY":231.236,"EPHEMERIS_TYPE":0,"CLASSIFICATION_TYPE":"U","NORAD_CAT_ID":64598,"ELEMENT_SET_NO":999,"REV_AT_EPOCH":4077,"BSTAR":0.00060445475,"MEAN_MOTION_DOT":0.0001758,"MEAN_MOTION_DDOT":0}]
